{"type": "FeatureCollection", "features": [{"type": "Feature", "properties": {"norad_id": 24946, "name": "IRIDIUM 33", "group": "iridium-33-debris", "lat": 56.82369778647365, "lon": -119.10556613645518, "alt_km": 767.128610987199, "timestamp": "2025-12-16T23:36:36.582875+00:00", "meta": {"OBJECT_NAME": "IRIDIUM 33", "OBJECT_ID": "1997-051C", "EPOCH": "2025-12-16T06:18:14.233536", "MEAN_MOTION": 14.3504001, "ECCENTRICITY": 0.00074488, "INCLINATION": 86.3869, "RA_OF_ASC_NODE": 66.743, "ARG_OF_PERICENTER": 188.078, "MEAN_ANOMALY": 172.0297, "EPHEMERIS_TYPE": 0, "CLASSIFICATION_TYPE": "U", "NORAD_CAT_ID": 24946, "ELEMENT_SET_NO": 999, "REV_AT_EPOCH": 47885, "BSTAR": 0.00010841723, "MEAN_MOTION_DOT": 3.29e-06, "MEAN_MOTION_DDOT": 0}, "tle": {"line1": "1 24946U 97051C   25350.26266474  .00000329  00000+0  10842-3 0  9990", "line2": "2 24946  86.3869  66.7430 0007448 188.0780 172.0297 14.35040010478856"}}, "geometry": {"type": "Point", "coordinates": [-119.10556613645518, 56.82369778647365]}}, {"type": "Feature", "properties": {"norad_id": 33773, "name": "IRIDIUM 33 DEB", "group": "iridium-33-debris", "lat": -25.66589986650857, "lon": -119.47558462254578, "alt_km": 750.6120989573756, "timestamp": "2025-12-16T23:36:36.582906+00:00", "meta": {"OBJECT_NAME": "IRIDIUM 33 DEB", "OBJECT_ID": "1997-051L", "EPOCH": "2025-12-16T06:01:18.969600", "MEAN_MOTION": 14.43264968, "ECCENTRICITY": 0.00128109, "INCLINATION": 86.4006, "RA_OF_ASC_NODE": 59.1016, "ARG_OF_PERICENTER": 136.0899, "MEAN_ANOMALY": 224.1323, "EPHEMERIS_TYPE": 0, "CLASSIFICATION_TYPE": "U", "NORAD_CAT_ID": 33773, "ELEMENT_SET_NO": 999, "REV_AT_EPOCH": 88398, "BSTAR": 0.00029252796, "MEAN_MOTION_DOT": 1.005e-05, "MEAN_MOTION_DDOT": 0}, "tle": {"line1": "1 33773U 97051L   25350.25091400  .00001005  00000+0  29253-3 0  9990", "line2": "2 33773  86.4006  59.1016 0012810 136.0899 224.1323 14.43264968883989"}}, "geometry": {"type": "Point", "coordinates": [-119.47558462254578, -25.66589986650857]}}, {"type": "Feature", "properties": {"norad_id": 33775, "name": "IRIDIUM 33 DEB", "group": "iridium-33-debris", "lat": -81.08249657446952, "lon": -108.34802762786184, "alt_km": 766.3356404222486, "timestamp": "2025-12-16T23:36:36.582921+00:00", "meta": {"OBJECT_NAME": "IRIDIUM 33 DEB", "OBJECT_ID": "1997-051N", "EPOCH": "2025-12-16T04:19:16.841856", "MEAN_MOTION": 14.41475834, "ECCENTRICITY": 0.00146603, "INCLINATION": 86.3635, "RA_OF_ASC_NODE": 48.0849, "ARG_OF_PERICENTER": 144.1663, "MEAN_ANOMALY": 269.5191, "EPHEMERIS_TYPE": 0, "CLASSIFICATION_TYPE": "U", "NORAD_CAT_ID": 33775, "ELEMENT_SET_NO": 999, "REV_AT_EPOCH": 88190, "BSTAR": 0.00028786237, "MEAN_MOTION_DOT": 9.55e-06, "MEAN_MOTION_DDOT": 0}, "tle": {"line1": "1 33775U 97051N   25350.18005604  .00000955  00000+0  28786-3 0  9998", "line2": "2 33775  86.3635  48.0849 0014660 144.1663 269.5191 14.41475834881903"}}, "geometry": {"type": "Point", "coordinates": [-108.34802762786184, -81.08249657446952]}}, {"type": "Feature", "properties": {"norad_id": 33776, "name": "IRIDIUM 33 DEB", "group": "iridium-33-debris", "lat": 81.09260795807388, "lon": 102.65021648727453, "alt_km": 757.7946691596198, "timestamp": "2025-12-16T23:36:36.582934+00:00", "meta": {"OBJECT_NAME": "IRIDIUM 33 DEB", "OBJECT_ID": "1997-051P", "EPOCH": "2025-12-16T08:31:09.344064", "MEAN_MOTION": 14.38241635, "ECCENTRICITY": 0.00147841, "INCLINATION": 86.4039, "RA_OF_ASC_NODE": 79.2579, "ARG_OF_PERICENTER": 178.4798, "MEAN_ANOMALY": 249.9611, "EPHEMERIS_TYPE": 0, "CLASSIFICATION_TYPE": "U", "NORAD_CAT_ID": 33776, "ELEMENT_SET_NO": 999, "REV_AT_EPOCH": 88134, "BSTAR": 0.00026079496, "MEAN_MOTION_DOT": 8.13e-06, "MEAN_MOTION_DDOT": 0}, "tle": {"line1": "1 33776U 97051P   25350.35496926  .00000813  00000+0  26079-3 0  9995", "line2": "2 33776  86.4039  79.2579 0014784 178.4798 249.9611 14.38241635881348"}}, "geometry": {"type": "Point", "coordinates": [102.65021648727453, 81.09260795807388]}}, {"type": "Feature", "properties": {"norad_id": 33777, "name": "IRIDIUM 33 DEB", "group": "iridium-33-debris", "lat": 44.794763707321295, "lon": -150.24719300781044, "alt_km": 703.9004770924403, "timestamp": "2025-12-16T23:36:36.582946+00:00", "meta": {"OBJECT_NAME": "IRIDIUM 33 DEB", "OBJECT_ID": "1997-051Q", "EPOCH": "2025-12-16T03:11:37.077792", "MEAN_MOTION": 14.55640259, "ECCENTRICITY": 0.00053723, "INCLINATION": 86.3787, "RA_OF_ASC_NODE": 33.7277, "ARG_OF_PERICENTER": 233.3111, "MEAN_ANOMALY": 126.7603, "EPHEMERIS_TYPE": 0, "CLASSIFICATION_TYPE": "U", "NORAD_CAT_ID": 33777, "ELEMENT_SET_NO": 999, "REV_AT_EPOCH": 88583, "BSTAR": 0.00058222602, "MEAN_MOTION_DOT": 2.562e-05, "MEAN_MOTION_DDOT": 0}, "tle": {"line1": "1 33777U 97051Q   25350.13306803  .00002562  00000+0  58223-3 0  9995", "line2": "2 33777  86.3787  33.7277 0005372 233.3111 126.7603 14.55640259885836"}}, "geometry": {"type": "Point", "coordinates": [-150.24719300781044, 44.794763707321295]}}, {"type": "Feature", "properties": {"norad_id": 33850, "name": "IRIDIUM 33 DEB", "group": "iridium-33-debris", "lat": -72.72474992077059, "lon": -139.77320793499075, "alt_km": 761.0965113442253, "timestamp": "2025-12-16T23:36:36.582958+00:00", "meta": {"OBJECT_NAME": "IRIDIUM 33 DEB", "OBJECT_ID": "1997-051T", "EPOCH": "2025-12-16T04:25:52.222080", "MEAN_MOTION": 14.42153252, "ECCENTRICITY": 0.00125363, "INCLINATION": 86.3417, "RA_OF_ASC_NODE": 28.6985, "ARG_OF_PERICENTER": 150.6502, "MEAN_ANOMALY": 276.0597, "EPHEMERIS_TYPE": 0, "CLASSIFICATION_TYPE": "U", "NORAD_CAT_ID": 33850, "ELEMENT_SET_NO": 999, "REV_AT_EPOCH": 88202, "BSTAR": 0.00027932452, "MEAN_MOTION_DOT": 9.39e-06, "MEAN_MOTION_DDOT": 0}, "tle": {"line1": "1 33850U 97051T   25350.18463220  .00000939  00000+0  27932-3 0  9998", "line2": "2 33850  86.3417  28.6985 0012536 150.6502 276.0597 14.42153252882029"}}, "geometry": {"type": "Point", "coordinates": [-139.77320793499075, -72.72474992077059]}}, {"type": "Feature", "properties": {"norad_id": 33853, "name": "IRIDIUM 33 DEB", "group": "iridium-33-debris", "lat": -19.11081206448585, "lon": -13.438691544596917, "alt_km": 970.9583151086417, "timestamp": "2025-12-16T23:36:36.582970+00:00", "meta": {"OBJECT_NAME": "IRIDIUM 33 DEB", "OBJECT_ID": "1997-051W", "EPOCH": "2025-12-16T06:35:32.599968", "MEAN_MOTION": 13.99083268, "ECCENTRICITY": 0.02070226, "INCLINATION": 85.9997, "RA_OF_ASC_NODE": 348.2614, "ARG_OF_PERICENTER": 224.87, "MEAN_ANOMALY": 144.759, "EPHEMERIS_TYPE": 0, "CLASSIFICATION_TYPE": "U", "NORAD_CAT_ID": 33853, "ELEMENT_SET_NO": 999, "REV_AT_EPOCH": 85395, "BSTAR": 0.0013856759, "MEAN_MOTION_DOT": 2.425e-05, "MEAN_MOTION_DDOT": 0}, "tle": {"line1": "1 33853U 97051W   25350.27468287  .00002425  00000+0  13857-2 0  9991", "line2": "2 33853  85.9997 348.2614 0207022 224.8700 144.7590 13.99083268853954"}}, "geometry": {"type": "Point", "coordinates": [-13.438691544596917, -19.11081206448585]}}, {"type": "Feature", "properties": {"norad_id": 33860, "name": "IRIDIUM 33 DEB", "group": "iridium-33-debris", "lat": -31.93426869038182, "lon": -152.3808253909171, "alt_km": 678.718745505731, "timestamp": "2025-12-16T23:36:36.582981+00:00", "meta": {"OBJECT_NAME": "IRIDIUM 33 DEB", "OBJECT_ID": "1997-051AD", "EPOCH": "2025-12-16T03:18:22.249728", "MEAN_MOTION": 14.67412584, "ECCENTRICITY": 0.00070007, "INCLINATION": 86.3834, "RA_OF_ASC_NODE": 25.7343, "ARG_OF_PERICENTER": 345.5584, "MEAN_ANOMALY": 80.1519, "EPHEMERIS_TYPE": 0, "CLASSIFICATION_TYPE": "U", "NORAD_CAT_ID": 33860, "ELEMENT_SET_NO": 999, "REV_AT_EPOCH": 88772, "BSTAR": 0.00078071983, "MEAN_MOTION_DOT": 4.437e-05, "MEAN_MOTION_DDOT": 0}, "tle": {"line1": "1 33860U 97051AD  25350.13775752  .00004437  00000+0  78072-3 0  9998", "line2": "2 33860  86.3834  25.7343 0007000 345.5584  80.1519 14.67412584887727"}}, "geometry": {"type": "Point", "coordinates": [-152.3808253909171, -31.93426869038182]}}, {"type": "Feature", "properties": {"norad_id": 33862, "name": "IRIDIUM 33 DEB", "group": "iridium-33-debris", "lat": -80.22677651974855, "lon": 14.279959536030818, "alt_km": 696.7048672460332, "timestamp": "2025-12-16T23:36:36.582992+00:00", "meta": {"OBJECT_NAME": "IRIDIUM 33 DEB", "OBJECT_ID": "1997-051AF", "EPOCH": "2025-12-16T02:52:06.661920", "MEAN_MOTION": 14.69533273, "ECCENTRICITY": 0.00531495, "INCLINATION": 86.4094, "RA_OF_ASC_NODE": 36.0403, "ARG_OF_PERICENTER": 57.8941, "MEAN_ANOMALY": 332.5382, "EPHEMERIS_TYPE": 0, "CLASSIFICATION_TYPE": "U", "NORAD_CAT_ID": 33862, "ELEMENT_SET_NO": 999, "REV_AT_EPOCH": 88873, "BSTAR": 0.00087900386, "MEAN_MOTION_DOT": 5.353e-05, "MEAN_MOTION_DDOT": 0}, "tle": {"line1": "1 33862U 97051AF  25350.11952155  .00005353  00000+0  87900-3 0  9990", "line2": "2 33862  86.4094  36.0403 0053149  57.8941 332.5382 14.69533273888730"}}, "geometry": {"type": "Point", "coordinates": [14.279959536030818, -80.22677651974855]}}, {"type": "Feature", "properties": {"norad_id": 33866, "name": "IRIDIUM 33 DEB", "group": "iridium-33-debris", "lat": 28.686650612170354, "lon": 93.26913330336336, "alt_km": 845.5853194927658, "timestamp": "2025-12-16T23:36:36.583003+00:00", "meta": {"OBJECT_NAME": "IRIDIUM 33 DEB", "OBJECT_ID": "1997-051AK", "EPOCH": "2025-12-16T08:37:26.387616", "MEAN_MOTION": 14.25287364, "ECCENTRICITY": 0.01147625, "INCLINATION": 86.3, "RA_OF_ASC_NODE": 91.5042, "ARG_OF_PERICENTER": 149.9058, "MEAN_ANOMALY": 278.1658, "EPHEMERIS_TYPE": 0, "CLASSIFICATION_TYPE": "U", "NORAD_CAT_ID": 33866, "ELEMENT_SET_NO": 999, "REV_AT_EPOCH": 86862, "BSTAR": 0.00048044812, "MEAN_MOTION_DOT": 1.231e-05, "MEAN_MOTION_DDOT": 0}, "tle": {"line1": "1 33866U 97051AK  25350.35933319  .00001231  00000+0  48045-3 0  9999", "line2": "2 33866  86.3000  91.5042 0114762 149.9058 278.1658 14.25287364868622"}}, "geometry": {"type": "Point", "coordinates": [93.26913330336336, 28.686650612170354]}}]}